0 SL-8 R/B
1 06324U 72104B   13282.48311906  .00000161  00000-0  56308-4 0   879
2 06324 074.0767 080.7439 0009562 213.3525 171.8528 14.42725782141316
0 SL-8 R/B
1 06324U 72104B   13283.68188649  .00000257  00000-0  85197-4 0   883
2 06324 074.0769 078.5245 0009468 210.9449 277.9104 14.42727327141484
0 SL-8 R/B
1 06324U 72104B   13286.09494571  .00000278  00000-0  91291-4 0   903
2 06324 074.0775 074.0569 0009330 205.7957 210.9668 14.42729226141836
0 SL-8 R/B
1 06324U 72104B   13287.48261439  .00000300  00000-0  98002-4 0   916
2 06324 074.0778 071.4878 0009291 202.9826 218.1623 14.42730149142033
0 SL-8 R/B
1 06324U 72104B   13288.80863248  .00000407  00000-0  13000-3 0   922
2 06324 074.0781 069.0329 0009238 200.4805 264.9821 14.42731418142222
0 SL-8 R/B
1 06324U 72104B   13289.84973137  .00000367  00000-0  11817-3 0   936
2 06324 074.0782 067.1056 0009205 198.6053 271.9555 14.42732293142376
0 SL-8 R/B
1 06324U 72104B   13291.50585059  .00000361  00000-0  11634-3 0   946
2 06324 074.0784 064.0398 0009128 194.7478 233.9348 14.42733451142617
0 SL-8 R/B
1 06324U 72104B   13292.84133069  .00000422  00000-0  13465-3 0   957
2 06324 074.0785 061.5675 0009070 192.0774 330.0616 14.42733978142806
0 SL-8 R/B
1 06324U 72104B   13294.13826762  .00000400  00000-0  12784-3 0   960
2 06324 074.0785 059.1666 0008997 189.4504 226.0406 14.42735545142990
0 SL-8 R/B
1 06324U 72104B   13295.52841351  .00000393  00000-0  12593-3 0   975
2 06324 074.0786 056.5931 0008934 186.5633 246.2030 14.42736975143197
